{
  "type": "FeatureCollection",
  "features": [
    {
      "type": "Feature",
      "properties": {
        "norad_id": 31678,
        "name": "FENGYUN 1C DEB",
        "group": "fengyun-1c-debris",
        "lat": -22.53634862122775,
        "lon": -72.60649076851843,
        "alt_km": 861.2700795923411,
        "timestamp": "2025-12-27T03:58:44.434453+00:00",
        "meta_object_name": "FENGYUN 1C DEB",
        "meta_object_id": "1999-025CCL",
        "meta_epoch": "2025-12-26T13:49:06.447648",
        "meta_mean_motion": 14.53315325,
        "meta_eccentricity": 0.025806,
        "meta_inclination": 98.7989,
        "meta_ra_of_asc_node": 110.4587,
        "meta_arg_of_pericenter": 345.8412,
        "meta_mean_anomaly": 13.5641,
        "meta_ephemeris_type": 0,
        "meta_classification_type": "U",
        "meta_norad_cat_id": 31678,
        "meta_element_set_no": 999,
        "meta_rev_at_epoch": 97040,
        "meta_bstar": 0.00080343,
        "meta_mean_motion_dot": 5.132e-05,
        "meta_mean_motion_ddot": 0,
        "tle_line1": "1 31678U 99025CCL 25360.57576907  .00005132  00000+0  80343-3 0  9993",
        "tle_line2": "2 31678  98.7989 110.4587 0258060 345.8412  13.5641 14.53315325970403"
      },
      "geometry": {
        "type": "Point",
        "coordinates": [
          -72.60649076851843,
          -22.53634862122775
        ]
      }
    },
    {
      "type": "Feature",
      "properties": {
        "norad_id": 31680,
        "name": "FENGYUN 1C DEB",
        "group": "fengyun-1c-debris",
        "lat": -64.70133440057032,
        "lon": -88.36858991395766,
        "alt_km": 446.85692306376586,
        "timestamp": "2025-12-27T03:58:44.434463+00:00",
        "meta_object_name": "FENGYUN 1C DEB",
        "meta_object_id": "1999-025CCN",
        "meta_epoch": "2025-12-24T13:28:55.173216",
        "meta_mean_motion": 15.24845989,
        "meta_eccentricity": 0.00745036,
        "meta_inclination": 99.8372,
        "meta_ra_of_asc_node": 109.7543,
        "meta_arg_of_pericenter": 251.2866,
        "meta_mean_anomaly": 108.0268,
        "meta_ephemeris_type": 0,
        "meta_classification_type": "U",
        "meta_norad_cat_id": 31680,
        "meta_element_set_no": 999,
        "meta_rev_at_epoch": 352,
        "meta_bstar": 0.0014478473,
        "meta_mean_motion_dot": 0.00038992,
        "meta_mean_motion_ddot": 0,
        "tle_line1": "1 31680U 99025CCN 25358.56174969  .00038992  00000+0  14478-2 0  9999",
        "tle_line2": "2 31680  99.8372 109.7543 0074503 251.2866 108.0268 15.24845989  3526"
      },
      "geometry": {
        "type": "Point",
        "coordinates": [
          -88.36858991395766,
          -64.70133440057032
        ]
      }
    },
    {
      "type": "Feature",
      "properties": {
        "norad_id": 31685,
        "name": "FENGYUN 1C DEB",
        "group": "fengyun-1c-debris",
        "lat": -36.80045921637089,
        "lon": -161.65048338213782,
        "alt_km": 856.8742422181331,
        "timestamp": "2025-12-27T03:58:44.434472+00:00",
        "meta_object_name": "FENGYUN 1C DEB",
        "meta_object_id": "1999-025CCT",
        "meta_epoch": "2025-12-23T18:53:17.762496",
        "meta_mean_motion": 14.09662143,
        "meta_eccentricity": 0.00164005,
        "meta_inclination": 98.73,
        "meta_ra_of_asc_node": 21.674,
        "meta_arg_of_pericenter": 193.5583,
        "meta_mean_anomaly": 166.5149,
        "meta_ephemeris_type": 0,
        "meta_classification_type": "U",
        "meta_norad_cat_id": 31685,
        "meta_element_set_no": 999,
        "meta_rev_at_epoch": 95245,
        "meta_bstar": 0.00013928838,
        "meta_mean_motion_dot": 2.02e-06,
        "meta_mean_motion_ddot": 0,
        "tle_line1": "1 31685U 99025CCT 25357.78701114  .00000202  00000+0  13929-3 0  9999",
        "tle_line2": "2 31685  98.7300  21.6740 0016400 193.5583 166.5149 14.09662143952450"
      },
      "geometry": {
        "type": "Point",
        "coordinates": [
          -161.65048338213782,
          -36.80045921637089
        ]
      }
    },
    {
      "type": "Feature",
      "properties": {
        "norad_id": 31686,
        "name": "FENGYUN 1C DEB",
        "group": "fengyun-1c-debris",
        "lat": -14.464973745147955,
        "lon": 74.92815458205745,
        "alt_km": 549.2652083387466,
        "timestamp": "2025-12-27T03:58:44.434481+00:00",
        "meta_object_name": "FENGYUN 1C DEB",
        "meta_object_id": "1999-025CCU",
        "meta_epoch": "2025-12-21T22:27:00.303552",
        "meta_mean_motion": 14.7223699,
        "meta_eccentricity": 0.02829038,
        "meta_inclination": 98.1511,
        "meta_ra_of_asc_node": 67.5581,
        "meta_arg_of_pericenter": 60.2602,
        "meta_mean_anomaly": 302.6434,
        "meta_ephemeris_type": 0,
        "meta_classification_type": "U",
        "meta_norad_cat_id": 31686,
        "meta_element_set_no": 999,
        "meta_rev_at_epoch": 97954,
        "meta_bstar": 0.00063583976,
        "meta_mean_motion_dot": 7.541e-05,
        "meta_mean_motion_ddot": 0,
        "tle_line1": "1 31686U 99025CCU 25355.93542018  .00007541  00000+0  63584-3 0  9996",
        "tle_line2": "2 31686  98.1511  67.5581 0282903  60.2602 302.6434 14.72236990979542"
      },
      "geometry": {
        "type": "Point",
        "coordinates": [
          74.92815458205745,
          -14.464973745147955
        ]
      }
    },
    {
      "type": "Feature",
      "properties": {
        "norad_id": 31688,
        "name": "FENGYUN 1C DEB",
        "group": "fengyun-1c-debris",
        "lat": -37.93663768433875,
        "lon": 62.068481112366065,
        "alt_km": 934.1189250895695,
        "timestamp": "2025-12-27T03:58:44.434490+00:00",
        "meta_object_name": "FENGYUN 1C DEB",
        "meta_object_id": "1999-025CCW",
        "meta_epoch": "2025-12-24T23:04:45.182784",
        "meta_mean_motion": 14.02316478,
        "meta_eccentricity": 0.00755733,
        "meta_inclination": 98.9619,
        "meta_ra_of_asc_node": 52.8355,
        "meta_arg_of_pericenter": 107.8977,
        "meta_mean_anomaly": 253.0448,
        "meta_ephemeris_type": 0,
        "meta_classification_type": "U",
        "meta_norad_cat_id": 31688,
        "meta_element_set_no": 999,
        "meta_rev_at_epoch": 95449,
        "meta_bstar": 9.6673387e-05,
        "meta_mean_motion_dot": 1.09e-06,
        "meta_mean_motion_ddot": 0,
        "tle_line1": "1 31688U 99025CCW 25358.96163406  .00000109  00000+0  96673-4 0  9993",
        "tle_line2": "2 31688  98.9619  52.8355 0075573 107.8977 253.0448 14.02316478954497"
      },
      "geometry": {
        "type": "Point",
        "coordinates": [
          62.068481112366065,
          -37.93663768433875
        ]
      }
    },
    {
      "type": "Feature",
      "properties": {
        "norad_id": 31691,
        "name": "FENGYUN 1C DEB",
        "group": "fengyun-1c-debris",
        "lat": -50.385558246629,
        "lon": 98.68411060278798,
        "alt_km": 826.4764337489878,
        "timestamp": "2025-12-27T03:58:44.434499+00:00",
        "meta_object_name": "FENGYUN 1C DEB",
        "meta_object_id": "1999-025CCZ",
        "meta_epoch": "2025-12-24T12:14:29.737824",
        "meta_mean_motion": 14.26259631,
        "meta_eccentricity": 0.00619367,
        "meta_inclination": 98.8802,
        "meta_ra_of_asc_node": 85.1044,
        "meta_arg_of_pericenter": 205.8688,
        "meta_mean_anomaly": 153.9391,
        "meta_ephemeris_type": 0,
        "meta_classification_type": "U",
        "meta_norad_cat_id": 31691,
        "meta_element_set_no": 999,
        "meta_rev_at_epoch": 64279,
        "meta_bstar": 0.0023694537,
        "meta_mean_motion_dot": 5.757e-05,
        "meta_mean_motion_ddot": 0,
        "tle_line1": "1 31691U 99025CCZ 25358.51006641  .00005757  00000+0  23695-2 0  9991",
        "tle_line2": "2 31691  98.8802  85.1044 0061936 205.8688 153.9391 14.26259631642799"
      },
      "geometry": {
        "type": "Point",
        "coordinates": [
          98.68411060278798,
          -50.385558246629
        ]
      }
    },
    {
      "type": "Feature",
      "properties": {
        "norad_id": 31692,
        "name": "FENGYUN 1C DEB",
        "group": "fengyun-1c-debris",
        "lat": -9.177647214686603,
        "lon": 176.6424339476493,
        "alt_km": 888.3727549594296,
        "timestamp": "2025-12-27T03:58:44.434508+00:00",
        "meta_object_name": "FENGYUN 1C DEB",
        "meta_object_id": "1999-025CDA",
        "meta_epoch": "2025-12-24T22:37:00.691968",
        "meta_mean_motion": 14.18480658,
        "meta_eccentricity": 0.00882618,
        "meta_inclination": 99.1772,
        "meta_ra_of_asc_node": 355.84,
        "meta_arg_of_pericenter": 47.2008,
        "meta_mean_anomaly": 313.6544,
        "meta_ephemeris_type": 0,
        "meta_classification_type": "U",
        "meta_norad_cat_id": 31692,
        "meta_element_set_no": 999,
        "meta_rev_at_epoch": 58382,
        "meta_bstar": 0.0029625894,
        "meta_mean_motion_dot": 6.321e-05,
        "meta_mean_motion_ddot": 0,
        "tle_line1": "1 31692U 99025CDA 25358.94236912  .00006321  00000+0  29626-2 0  9993",
        "tle_line2": "2 31692  99.1772 355.8400 0088261  47.2008 313.6544 14.18480658583826"
      },
      "geometry": {
        "type": "Point",
        "coordinates": [
          176.6424339476493,
          -9.177647214686603
        ]
      }
    }
  ]
}